#aV2007  7 19  0  0   .00000000      96 DD+AD WGS84 FIT  NGA
## 1436 345600.00000000   900.00000000 54300  .0000000000000
+   31     1  2  3  4  5  6  7  8  9 10 11 12 13 14 16 17 18
+         19 20 21 22 23 24 25 26 27 28 29 30 31 32  0  0  0
+          0  0  0  0  0  0  0  0  0  0  0  0  0  0  0  0  0
+          0  0  0  0  0  0  0  0  0  0  0  0  0  0  0  0  0
+          0  0  0  0  0  0  0  0  0  0  0  0  0  0  0  0  0
++         0  0  0  0  0  0  0  0  0  0  0  0  0  0  0  0  0
++         0  0  0  0  0  0  0  0  0  0  0  0  0  0  0  0  0
++         0  0  0  0  0  0  0  0  0  0  0  0  0  0  0  0  0
++         0  0  0  0  0  0  0  0  0  0  0  0  0  0  0  0  0
++         0  0  0  0  0  0  0  0  0  0  0  0  0  0  0  0  0
%c cc cc ccc ccc cccc cccc cccc cccc ccccc ccccc ccccc ccccc
%c cc cc ccc ccc cccc cccc cccc cccc ccccc ccccc ccccc ccccc
%f  0.0000000  0.000000000  0.00000000000  0.000000000000000
%f  0.0000000  0.000000000  0.00000000000  0.000000000000000
%i    0    0    0    0      0      0      0      0         0
%i    0    0    0    0      0      0      0      0         0
/*      NGA, ST. LOUIS,MO.                                  
/*   EPHEMERIS COMPUTED FROM  3 DAYS OF DATA                
/* CCCCCCCCCCCCCCCCCCCCCCCCCCCCCCCCCCCCCCCCCCCCCCCCCCCCCCCCC
/* CCCCCCCCCCCCCCCCCCCCCCCCCCCCCCCCCCCCCCCCCCCCCCCCCCCCCCCCC
*  2007  7 19  3 30   .00000000                                                 
P  1  18111.831179  15226.891747  12336.604415    140.737481                    
V  1 -14840.431245  -3869.303682  26949.620676       .022980                    
P  2 -13361.999669 -20033.451671 -11729.345152    122.599463                    
V  2   -860.823772 -14700.320866  26248.875105       .027984                    
P  3  23349.694459  10656.865278  -7693.520283     88.631831                    
V  3  -9928.344236   1389.769132 -28671.715853       .055538                    
P  4  -6272.422682 -25584.732320  -1114.917515      6.057361                    
V  4   3262.087785  -2080.923359  31594.127514      -.016354                    
P  5 -20727.936373  14391.895622   7790.376575    194.978989                    
V  5   4399.268975  -9903.202433  29239.230925       .442209                    
P  6 -16446.690439   9634.726070 -18321.298522    236.836298                    
V  6 -22431.073289  -7990.536757  15732.829051       .054312                    
P  7 -13565.788355  11469.382471 -19412.826920    197.210921                    
V  7 -24419.190567  -7438.744247  12395.492355      -.205216                    
P  8   1284.283480 -24968.274995  -8376.831786   -115.472578                    
V  8   4219.025830  10003.462417 -30002.736306      -.015610                    
P  9 -15258.658424   -557.775502  21151.057409     79.293966                    
V  9  -6889.599178 -27404.984071  -5333.549505       .016478                    
P 10 -13651.907594  -7742.950293 -21583.772972    104.963613                    
V 10  20083.247411 -18140.579078  -5918.608042       .005501                    
P 11  16630.298334  -2846.898442  20431.250593     20.722999                    
V 11   9670.133388  24655.607408  -4111.473236       .006146                    
P 12 -21897.260836   8500.779426  12434.357274    -49.884770                    
V 12   9908.041180 -12330.836696  26157.543791      -.011573                    
P 13  15477.256123  -8345.893188 -20001.618316    191.081405                    
V 13  23422.707422   9024.171209  14465.937395       .031727                    
P 14   4753.030082  15998.598381  20765.439829     30.704687                    
V 14 -24943.977728  -7648.052722  11562.289508       .020196                    
P 16   8549.669901  12558.032871 -21697.656163    163.581542                    
V 16 -20821.883276  18334.111444   2552.766813       .025910                    
P 17  -2312.909538 -16168.860819  20987.588932     60.704236                    
V 17  25548.838960   7378.612106   8376.426653      -.012406                    
P 18 -16245.963046  19824.609111   6366.807001   -243.858284                    
V 18  -8156.768415   2743.869135 -30391.808889       .013010                    
P 19  25465.495441   6792.659335   3914.302675     51.774542                    
V 19   3522.031248   4312.008258 -31076.237910       .029155                    
P 20  21930.232851 -11084.787770   9938.658715    -26.963657                    
V 20  -7347.912945  10843.722316  28040.723994      -.005052                    
P 21  -7573.524981  19913.584449 -15346.865994     78.660545                    
V 21  -6633.455663 -19115.611752 -21927.192778       .000339                    
P 22  -5843.255399  20197.217730  16359.415629    191.227251                    
V 22 -17028.734962  11651.376565 -20702.820762       .016425                    
P 23  23189.618938  -2150.434021 -13051.958016    183.104714                    
V 23  15056.307530   6603.402869  25614.542131       .033175                    
P 24 -13393.513502   9154.983805 -20875.283501     16.214387                    
V 24  -5242.157522 -26435.205902  -7867.805914       .029725                    
P 25   9799.631267 -14402.863948 -19728.956479    372.441972                    
V 25   9159.015255  24161.847365 -12704.809090       .167649                    
P 26 -25234.947540  -9225.476648   -558.189408   -315.102122                    
V 26    579.733016  -1207.114959 -32060.387383      -.221763                    
P 27   5199.537014 -20372.160188 -15445.797288    123.499932                    
V 27   7986.281931  19419.990983 -22236.101009       .023830                    
P 28   8752.012812 -20798.448445  14068.321514     -3.261989                    
V 28  14562.594357  -9835.683550 -24526.230538      -.007231                    
P 29 -24244.350807 -10442.095364  -4232.601553      4.550432                    
V 29   5778.573119    127.331097 -31524.581562       .001877                    
P 30 -19509.681855  17827.752374   1624.228066     39.922801                    
V 30   -643.282331  -4112.391591  31428.101587       .010371                    
P 31   8043.308991  25050.354623  -3146.333067     15.336691                    
V 31  -1767.723829   4761.773618  31522.550077      -.010403                    
P 32   6056.188552  14284.314883  22039.113710    517.354650                    
V 32 -21262.977920  16343.413974  -4728.211896       .202563                    
EOF
